INTELSAT 26 (IS-26)     
1 24732U 97007A   22046.79270748 -.00000234  00000+0  00000+0 0  9997
2 24732   9.8869  39.5196 0011482 274.7874  81.6194  0.98908595 91392
GALAXY 25 (G-25)        
1 24812U 97026A   22046.80049348 -.00000003  00000+0  00000+0 0  9993
2 24812   3.3895  84.8788 0003408 230.1305 185.0108  1.00271981 90516
INTELSAT 5 (IS-5)       
1 24916U 97046A   22046.69792388  .00000128  00000+0  00000+0 0  9993
2 24916   6.9694  61.8897 0002537 199.8957 344.3381  1.00129934 89756
GALAXY 11 (G-11)        
1 26038U 99071A   22047.33228097 -.00000161  00000+0  00000+0 0  9991
2 26038   2.7047  89.3657 0000493 132.4934 310.9387  1.00271604 81215
INTELSAT 9 (IS-9)       
1 26451U 00043A   22047.48052692 -.00000285  00000+0  00000+0 0  9990
2 26451   6.9563  62.0595 0002598 256.6425 310.7302  1.00271838 78988
INTELSAT 1R (IS-1R)     
1 26608U 00072A   22046.87271505 -.00000137  00000+0  00000+0 0  9990
2 26608   4.1431  81.1369 0001610 356.5403 179.4271  1.00272145 25458
INTELSAT 10 (IS-10)     
1 26766U 01019A   22046.83518274  .00000036  00000+0  00000+0 0  9997
2 26766   5.2902  74.3986 0003289 255.4733 294.3808  1.00272310 29758
INTELSAT 901 (IS-901)   
1 26824U 01024A   22047.36842515 -.00000201  00000+0  00000+0 0  9990
2 26824   0.0556 278.4669 0000967  54.2593 278.7327  1.00271319 75723
INTELSAT 902 (IS-902)   
1 26900U 01039A   22046.86152264 -.00000281  00000+0  00000+0 0  9998
2 26900   2.1012  90.3636 0002732 243.7599  71.7286  1.00269446 74829
INTELSAT 904 (IS-904)   
1 27380U 02007A   22047.36798906 -.00000213  00000+0  00000+0 0  9997
2 27380   2.9341  87.2426 0003259 242.3792 279.6733  1.00271924 73225
DIRECTV 5 (TEMPO 1)     
1 27426U 02023A   22047.46636594 -.00000054  00000+0  00000+0 0  9994
2 27426   0.8228  94.7144 0003701 245.6122 223.8527  1.00272239 72447
INTELSAT 905 (IS-905)   
1 27438U 02027A   22046.86658130 -.00000183  00000+0  00000+0 0  9997
2 27438   2.7551  88.0118 0002822 234.4260 110.8513  1.00272937 35498
GALAXY 3C (G-3C)        
1 27445U 02030A   22046.56544698 -.00000149  00000+0  00000+0 0  9991
2 27445   0.0092  59.1909 0001983 269.6442 285.2004  1.00271595 30635
INTELSAT 906 (IS-906)   
1 27513U 02041A   22046.80049348  .00000016  00000+0  00000+0 0  9990
2 27513   1.7682  91.9422 0003336 245.5583 160.5618  1.00271092 71162
GALAXY 12 (G-12)        
1 27715U 03013B   22047.45220753  .00000059  00000+0  00000+0 0  9994
2 27715   2.9687  86.8263 0002112 240.1718 213.1912  1.00271580 69141
GALAXY 23 (G-23)        
1 27854U 03034A   22047.45829934  .00000015  00000+0  00000+0 0  9999
2 27854   0.0441 257.8168 0002871  75.2161 217.3579  1.00271492 72687
GALAXY 13 (HORIZONS 1)  
1 27954U 03044A   22046.65578639  .00000050  00000+0  00000+0 0  9994
2 27954   0.0247  99.3592 0001306 259.5058 255.7985  1.00270163 30704
INTELSAT 10-02          
1 28358U 04022A   22046.94307164 -.00000009  00000+0  00000+0 0  9990
2 28358   0.0606 274.4278 0001003  62.6686 147.3129  1.00271600 64769
XM-3 (RHYTHM)           
1 28626U 05008A   22046.85454519 -.00000203  00000+0  00000+0 0  9996
2 28626   0.0188 107.4020 0000952 336.2011 284.7607  1.00268039 26752
DIRECTV 8               
1 28659U 05019A   22047.45951251  .00000003  00000+0  00000+0 0  9993
2 28659   0.0369 268.8742 0003200  62.8733 221.0265  1.00272448 61329
GALAXY 28 (G-28)        
1 28702U 05022A   22047.33606394 -.00000183  00000+0  00000+0 0  9998
2 28702   0.0085 347.4707 0002040   8.7578 182.0333  1.00270263 60969
GALAXY 14 (G-14)        
1 28790U 05030A   22046.87809410  .00000157  00000+0  00000+0 0  9996
2 28790   0.9557  93.5270 0002172 235.2501 166.0723  1.00274250 60440
GALAXY 15 (G-15)        
1 28884U 05041A   22047.44810293  .00000081  00000+0  00000+0 0  9993
2 28884   0.0550 283.0069 0001601  50.2676 201.4184  1.00273026 59740
SPACEWAY 2              
1 28903U 05046B   22047.16640554  .00000105  00000+0  00000+0 0  9997
2 28903   1.6256  89.1752 0000144  97.8011 240.1424  1.00271894 59633
GALAXY 16 (G-16)        
1 29236U 06023A   22046.85166699 -.00000125  00000+0  00000+0 0  9994
2 29236   0.0283 125.1347 0002917 208.5852  19.6916  1.00269663 57107
DIRECTV 9S              
1 29494U 06043A   22047.47428153 -.00000111  00000+0  00000+0 0  9992
2 29494   0.0277 232.7016 0003203  97.1972 246.0543  1.00271448 56248
XM-4 (BLUES)            
1 29520U 06049A   22047.18102175 -.00000021  00000+0  00000+0 0  9999
2 29520   0.0633 293.5826 0002115  23.8778 138.6083  1.00271601 56133
GALAXY 17 (G-17)        
1 31307U 07016B   22046.85332413 -.00000172  00000+0  00000+0 0  9990
2 31307   0.0199 112.4513 0003361 224.4830  25.0966  1.00269959 53937
DIRECTV 10              
1 31862U 07032A   22047.47321316 -.00000102  00000+0  00000+0 0  9996
2 31862   0.0504 286.4967 0000179  54.5177 232.9623  1.00273309 53548
SPACEWAY 3              
1 32018U 07036A   22046.56544698 -.00000149  00000+0  00000+0 0  9994
2 32018   0.0138 118.0213 0000345 230.1238 266.0141  1.00269559 30689
INTELSAT 11 (IS-11)     
1 32253U 07044B   22047.19826137 -.00000267  00000+0  00000+0 0  9996
2 32253   0.0146 100.2748 0002074 238.8076 195.4401  1.00270292 52663
HORIZONS 2              
1 32388U 07063B   22046.88838584 -.00000180  00000+0  00000+0 0  9994
2 32388   0.0150  92.6807 0002939 232.5359 225.2818  1.00270825 51959
DIRECTV 11              
1 32729U 08013A   22047.47549250 -.00000124  00000+0  00000+0 0  9992
2 32729   0.0004 351.0335 0000334   1.4960 225.8930  1.00272699 51077
GALAXY 18 (G-18)        
1 32951U 08024A   22047.17615100  .00000027  00000+0  00000+0 0  9997
2 32951   0.0206 132.9157 0003192 210.1869 103.4567  1.00270026 50223
INTELSAT 25 (IS-25)     
1 33153U 08034A   22046.93696638 -.00000222  00000+0  00000+0 0  9999
2 33153   0.0213 199.4559 0003027 145.6470 106.5900  1.00273232 49772
GALAXY 19 (G-19)        
1 33376U 08045A   22047.47777115 -.00000137  00000+0  00000+0 0  9993
2 33376   0.0138 106.4167 0003313 221.3434 253.6537  1.00270938 48979
FM-5                    
1 35493U 09034A   22046.63896438 -.00000198  00000+0  00000+0 0  9998
2 35493   0.0239 112.0875 0000553 302.1072 235.3040  1.00267649 30771
INTELSAT 14 (IS-14)     
1 36097U 09064A   22046.86248205 -.00000272  00000+0  00000+0 0  9993
2 36097   0.0173 137.2311 0002609 205.4437  68.6565  1.00264331 44732
INTELSAT 15 (IS-15)     
1 36106U 09067A   22046.88847306 -.00000183  00000+0  00000+0 0  9997
2 36106   0.0181  85.0802 0002515 250.2327 215.5203  1.00271067 25363
DIRECTV 12              
1 36131U 09075A   22047.47321363 -.00000102  00000+0  00000+0 0  9991
2 36131   0.0427 273.2168 0000257  52.2983 248.5359  1.00273791 44522
INTELSAT 16 (IS-16)     
1 36397U 10006A   22047.34278464 -.00000243  00000+0  00000+0 0  9996
2 36397   0.0175  92.6404 0002136 245.2678 215.5755  1.00270490 43857
XM-5                    
1 37185U 10053A   22047.46286080 -.00000021  00000+0  00000+0 0  9994
2 37185   0.0166 156.5553 0001403 274.1512 127.1128  1.00268711 41585
INTELSAT 17 (IS-17)     
1 37238U 10065B   22046.84950671  .00000000  00000+0  00000+0 0  9997
2 37238   0.0283 210.4584 0002808 133.6417 173.5192  1.00271498 37375
INTELSAT NEW DAWN       
1 37392U 11016A   22046.87800687  .00000157  00000+0  00000+0 0  9992
2 37392   0.0351 237.2513 0000604 238.7105  18.7235  1.00270963 37424
INTELSAT 18 (IS-18)     
1 37834U 11056A   22046.84146491  .00000054  00000+0  00000+0 0  9996
2 37834   0.0224  55.2960 0002476 292.1257 281.2921  1.00270964 37946
INTELSAT 22 (IS-22)     
1 38098U 12011A   22046.80743811 -.00000057  00000+0  00000+0 0  9990
2 38098   0.0199 224.4976 0002756 103.9245 180.1032  1.00270290 35955
INTELSAT 19 (IS-19)     
1 38356U 12030A   22046.84146491 -.00000055  00000+0  00000+0 0  9991
2 38356   0.0126  98.9004 0003117 242.6065 273.2201  1.00271983 34570
INTELSAT 20 (IS-20)     
1 38740U 12043A   22046.66983962 -.00000023  00000+0  00000+0 0  9999
2 38740   0.0212 121.3025 0001298  59.1095 274.8480  1.00271956 34878
INTELSAT 21 (IS-21)     
1 38749U 12045A   22047.00448524 -.00000283  00000+0  00000+0 0  9997
2 38749   0.0172 133.3762 0002188 192.3703 123.8492  1.00266993 34778
INTELSAT 23 (IS-23)     
1 38867U 12057A   22046.86091212 -.00000283  00000+0  00000+0 0  9992
2 38867   0.0350 238.5916 0001845  85.5358  78.6015  1.00272330 34077
FM-6                    
1 39360U 13058A   22047.18020248 -.00000015  00000+0  00000+0 0  9993
2 39360   0.0302 259.0425 0000333 316.0978 239.6816  1.00269381 30488
INTELSAT 30 (IS-30)     
1 40271U 14062A   22046.85253917 -.00000148  00000+0  00000+0 0  9993
2 40271   0.0216 122.4079 0002111 355.3988 239.8780  1.00267763 26711
DIRECTV 14              
1 40333U 14078B   22046.85157977 -.00000123  00000+0  00000+0 0  9991
2 40333   0.0196 104.4793 0000467 139.5049 109.1643  1.00271194 26194
DIRECTV 15              
1 40663U 15026A   22047.47321299 -.00000100  00000+0  00000+0 0  9995
2 40663   0.0176 104.0925 0000399 162.2312 307.5627  1.00268140 24675
SKY MEXICO-1            
1 40664U 15026B   22046.85576625 -.00000232  00000+0  00000+0 0  9998
2 40664   0.0122 120.5315 0002256 222.5835  32.0223  1.00267361 24583
INTELSAT 34 (IS-34)     
1 40874U 15039A   22046.99355008 -.00000284  00000+0  00000+0 0  9997
2 40874   0.0054  54.9442 0000652 174.9679 218.2180  1.00270771 23752
INTELSAT 31 (IS-31)     
1 41581U 16035A   22046.56544698 -.00000149  00000+0  00000+0 0  9998
2 41581   0.0339 241.3490 0002504 324.2564  48.4193  1.00272768 20820
INTELSAT 36 (IS-36)     
1 41747U 16053A   22047.23938230 -.00000022  00000+0  00000+0 0  9996
2 41747   0.0234  98.6879 0000913 235.9485 326.2592  1.00268867 20087
INTELSAT 33E (IS-33E)   
1 41748U 16053B   22046.88341440  .00000051  00000+0  00000+0 0  9999
2 41748   0.0387 336.1465 0001730 348.1168 199.5847  1.00272149 20386
INTELSAT 32E (IS-32E)   
1 41945U 17007B   22047.36528530 -.00000267  00000+0  00000+0 0  9999
2 41945   0.0134  99.2198 0000235 242.6684 252.7509  1.00281097 18381
INTELSAT 35E (IS-35E)   
1 42818U 17041A   22047.36702966 -.00000236  00000+0  00000+0 0  9990
2 42818   0.0452 260.0956 0001672  53.5157 290.3290  1.00271716 16946
INTELSAT 37E (IS-37E)   
1 42950U 17059A   22047.37025674 -.00000140  00000+0  00000+0 0  9995
2 42950   0.0271 127.3240 0002600 199.8740 294.4175  1.00268739 16181
AZERSPACE 2 (IS-38)     
1 43632U 18074A   22046.88044899  .00000138  00000+0  00000+0 0  9992
2 43632   0.0122  97.3484 0001587 229.7301 180.8197  1.00271706 12602
HORIZONS 3E             
1 43633U 18074B   22046.84146491 -.00000029  00000+0  00000+0 0  9990
2 43633   0.0013  33.4747 0000887 288.1373 296.0945  1.00271817 12474
AT&T T-16               
1 44333U 19034A   22047.47428140 -.00000113  00000+0  00000+0 0  9993
2 44333   0.0544 290.1976 0000458 280.6808   5.4124  1.00270257  9778
INTELSAT 39 (IS-39)     
1 44476U 19049B   22046.88385050  .00000035  00000+0  00000+0 0  9995
2 44476   0.0253 120.6280 0000934  41.6650   3.6891  1.00269729  9286
GALAXY 30               
1 46114U 20056C   22046.70298253  .00000039  00000+0  00000+0 0  9999
2 46114   0.0129 100.1528 0002051 228.4210 305.1646  1.00270952  5426
